ONEWEB-0612             
1 54675U 22166AK  23336.76262080  .00000078  00000+0  15656-3 0  9992
2 54675  87.9250  68.5902 0001911  92.5785 267.5568 13.21824965 48910
ONEWEB-0615             
1 54676U 22166AL  23336.81937660 -.00000217  00000+0 -55675-3 0  9994
2 54676  87.9263  68.5981 0001577  94.7622 265.3692 13.21826559 48931
ONEWEB-0655             
1 54677U 22166AM  23336.79258427 -.00000240  00000+0 -61155-3 0  9995
2 54677  87.9251  68.6068 0001714  90.9637 269.1693 13.21824188 48921
ONEWEB-0659             
1 54678U 22166AN  23336.80995026  .00003528  00000+0  85091-2 0  9995
2 54678  87.9234  68.6188 0002482  71.4524 288.6880 13.21814979 49010
ONEWEB-0685             
1 54679U 22166AP  23336.81150000  .00000053  00000+0  97594-4 0  9995
2 54679  87.9261  68.5978 0001804  78.5621 281.5715 13.21827873 48903
ONEWEB-0712             
1 54680U 22166AQ  23336.77622726  .00000015  00000+0  66111-5 0  9991
2 54680  87.9236  53.3721 0001501 117.9325 242.1958 13.16590945 50027
ONEWEB-0714             
1 54681U 22166AR  23336.81780851  .00000006  00000+0 -17758-4 0  9994
2 54681  87.9254  68.5837 0001681  93.3228 266.8099 13.21825994 49020
ONEWEB-0532             
1 55140U 23004A   23336.62400330  .00001100  00000+0  27994-2 0  9993
2 55140  87.9193 190.2567 0002596  76.1749 283.9671 13.17669425 45436
